NORAD_CAT_ID,OBJECT_NAME,OBJECT_TYPE,EPOCH,MEAN_MOTION,ECCENTRICITY,INCLINATION,RA_OF_ASC_NODE,ARG_OF_PERICENTER,MEAN_ANOMALY,BSTAR,MEAN_MOTION_DOT,MEAN_MOTION_DDOT,TLE_LINE0,TLE_LINE1,TLE_LINE2,SEMIMAJOR_AXIS,PERIOD,APOGEE,PERIGEE,DECAYED
53420.0,STARLINK-4552,PAYLOAD,2022-08-15 18:00:00,15.85755516,0.0019008,53.2175,220.7526,51.9176,16.0768,-0.0051594,-0.01152235,0.0,0 STARLINK-4552,1 53420U 22097AJ  22227.75001157 -.01152235  00000-0 -51594-2 0  9992,2 53420  53.2175 220.7526 0019008  51.9176  16.0768 15.85755516  1300,6692.335,90.808,326.921,301.4790000000001,0.0
53420.0,STARLINK-4552,PAYLOAD,2022-08-16 06:00:02,15.84460971,0.001474,53.2175,218.2356,49.3006,353.6262,-0.005591,-0.01161202,0.0,0 STARLINK-4552,1 53420U 22097AJ  22228.25002315 -.01161202  00000-0 -55910-2 0  9995,2 53420  53.2175 218.2356 0014740  49.3006 353.6262 15.84460971  1377,6695.98,90.883,327.715,307.975,0.0
53420.0,STARLINK-4552,PAYLOAD,2022-08-16 14:00:01,15.83599032,0.0010951,53.2173,216.5589,47.2379,97.5642,-0.0059047,-0.0119032,0.0,0 STARLINK-4552,1 53420U 22097AJ  22228.58334491 -.01190320  00000-0 -59047-2 0  9992,2 53420  53.2173 216.5589 0010951  47.2379  97.5642 15.83599032  1303,6698.409000000002,90.932,327.61,312.939,0.0
53420.0,STARLINK-4552,PAYLOAD,2022-08-16 22:00:00,15.82754162,0.0008445999999999,53.2173,214.8834,44.6623,201.0323,-0.0063844999999999,-0.01227839,0.0,0 STARLINK-4552,1 53420U 22097AJ  22228.91667824 -.01227839  00000-0 -63845-2 0  9995,2 53420  53.2173 214.8834 0008446  44.6623 201.0323 15.82754162  1300,6700.793000000002,90.981,328.31699999999995,316.998,0.0
53420.0,STARLINK-4552,PAYLOAD,2022-08-17 14:00:01,15.80997432,0.0003996,53.2173,211.5432,9.3761,74.9957,-0.0067249,-0.01190362,0.0,0 STARLINK-4552,1 53420U 22097AJ  22229.58334491 -.01190362  00000-0 -67249-2 0  9992,2 53420  53.2173 211.5432 0003996   9.3761  74.9957 15.80997432  1592,6705.755999999999,91.082,330.3,324.941,0.0
53420.0,STARLINK-4552,PAYLOAD,2022-08-18 08:00:01,15.79037395,0.0003306,53.2183,207.7951,349.4535,43.4391,-0.0073051,-0.01181572,0.0,0 STARLINK-4552,1 53420U 22097AJ  22230.33334491 -.01181572  00000-0 -73051-2 0  9998,2 53420  53.2183 207.7951 0003306 349.4535  43.4391 15.79037395  1705,6711.304,91.195,335.3880000000001,330.95,0.0
53420.0,STARLINK-4552,PAYLOAD,2022-08-18 14:00:01,15.78409093,0.0003513,53.2175,206.5468,337.4681,37.0792,-0.0077213,-0.01210131,0.0,0 STARLINK-4552,1 53420U 22097AJ  22230.58334491 -.01210131  00000-0 -77213-2 0  9993,2 53420  53.2175 206.5468 0003513 337.4681  37.0792 15.78409093  1302,6713.085,91.231,337.30800000000005,332.591,0.0
53420.0,STARLINK-4552,PAYLOAD,2022-08-18 22:00:00,15.77529156,0.000379,53.2175,204.8842,1.8394,107.3555,-0.0079075,-0.01193197,0.0,0 STARLINK-4552,1 53420U 22097AJ  22230.91667824 -.01193197  00000-0 -79075-2 0  9999,2 53420  53.2175 204.8842 0003790   1.8394 107.3555 15.77529156  1804,6715.581,91.282,339.991,334.901,0.0
53420.0,STARLINK-4552,PAYLOAD,2022-08-19 14:00:01,15.75792133,6.6e-05,53.2174,201.5693,58.36,236.9896,-0.0085352,-0.01190037,0.0,0 STARLINK-4552,1 53420U 22097AJ  22231.58334491 -.01190037  00000-0 -85352-2 0  9999,2 53420  53.2174 201.5693 0000660  58.3600 236.9896 15.75792133  1308,6720.515,91.383,342.824,341.936,0.0
53420.0,STARLINK-4552,PAYLOAD,2022-08-19 16:00:00,15.75577178,8.609999999999999e-05,53.2176,201.1549,67.6364,340.6886,-0.0086405,-0.01193022,0.0,0 STARLINK-4552,1 53420U 22097AJ  22231.66667824 -.01193022  00000-0 -86405-2 0  9994,2 53420  53.2176 201.1549 0000861  67.6364 340.6886 15.75577178  1918,6721.126,91.395,343.57,342.413,0.0
53420.0,STARLINK-4552,PAYLOAD,2022-08-19 22:00:00,15.74925747,0.0001057,53.2177,199.9135,71.2083,315.6528,-0.0088849999999999,-0.01192224,0.0,0 STARLINK-4552,1 53420U 22097AJ  22231.91667824 -.01192224  00000-0 -88850-2 0  9991,2 53420  53.2177 199.9135 0001057  71.2083 315.6528 15.74925747  1307,6722.979,91.433,345.555,344.134,0.0
53420.0,STARLINK-4552,PAYLOAD,2022-08-20 14:00:01,15.73232036,0.0001111,53.2174,196.6111,85.1908,121.6327,-0.00034108,-0.00048278,0.0,0 STARLINK-4552,1 53420U 22097AJ  22232.58334491 -.00048278  00000-0 -34108-3 0  9992,2 53420  53.2174 196.6111 0001111  85.1908 121.6327 15.73232036  2060,6727.804,91.531,350.416,348.921,0.0
53420.0,STARLINK-4552,PAYLOAD,2022-08-20 22:00:00,15.73203882,0.0001131,53.2175,194.9606,75.5784,220.1915,1.4257e-05,1.382e-05,0.0,0 STARLINK-4552,1 53420U 22097AJ  22232.91667824  .00001382  00000-0  14257-4 0  9995,2 53420  53.2175 194.9606 0001131  75.5784 220.1915 15.73203882  1309,6727.884,91.533,350.51,348.98800000000006,0.0
53420.0,STARLINK-4552,PAYLOAD,2022-08-21 06:00:00,15.7325231,0.000126,53.2199,193.3161,76.1928,308.56,-0.0006212999999999,-0.00087111,0.0,0 STARLINK-4552,1 53420U 22097AJ  22233.25001157 -.00087111  00000-0 -62130-3 0  9992,2 53420  53.2199 193.3161 0001260  76.1928 308.5600 15.73252310  2161,6727.746,91.53,350.459,348.76300000000015,0.0
53420.0,STARLINK-4552,PAYLOAD,2022-08-21 14:00:01,15.73199316,0.0001163,53.22,191.6653,81.0599,32.6653,-0.00038618,-0.00054465,0.0,0 STARLINK-4552,1 53420U 22097AJ  22233.58334491 -.00054465  00000-0 -38618-3 0  9998,2 53420  53.2200 191.6653 0001163  81.0599  32.6653 15.73199316  1306,6727.897,91.533,350.545,348.98,0.0
53420.0,STARLINK-4552,PAYLOAD,2022-08-21 22:00:00,15.73169705,0.0001354,53.2203,190.0154,88.62100000000002,113.9887,0.00029944,0.00041558,0.0,0 STARLINK-4552,1 53420U 22097AJ  22233.91667824  .00041558  00000-0  29944-3 0  9993,2 53420  53.2203 190.0154 0001354  88.6210 113.9887 15.73169705  1304,6727.982,91.535,350.7580000000001,348.936,0.0
53420.0,STARLINK-4552,PAYLOAD,2022-08-22 12:00:00,15.73253127,0.0001183,53.2195,187.1301,80.421,187.7787,-0.00077356,-0.00108043,0.0,0 STARLINK-4552,1 53420U 22097AJ  22234.50001157 -.00108043  00000-0 -77356-3 0  9995,2 53420  53.2195 187.1301 0001183  80.4210 187.7787 15.73253127  2362,6727.744000000002,91.53,350.405,348.81300000000016,0.0
53420.0,STARLINK-4552,PAYLOAD,2022-08-22 22:00:00,15.7318404,0.0001081,53.22,185.0676,92.1937,17.1652,0.00023378,0.00032293,0.0,0 STARLINK-4552,1 53420U 22097AJ  22234.91667824  .00032293  00000-0  23378-3 0  9995,2 53420  53.2200 185.0676 0001081  92.1937  17.1652 15.73184040  2436,6727.941,91.534,350.533,349.07800000000015,0.0
53420.0,STARLINK-4552,PAYLOAD,2022-08-23 14:00:01,15.73242944,0.0001161,53.2204,181.7693,86.0995,201.111,-0.0006337999999999,-0.00088797,0.0,0 STARLINK-4552,1 53420U 22097AJ  22235.58334491 -.00088797  00000-0 -63380-3 0  9999,2 53420  53.2204 181.7693 0001161  86.0995 201.1110 15.73242944  1304,6727.773,91.531,350.4190000000001,348.857,0.0
53420.0,STARLINK-4552,PAYLOAD,2022-08-23 20:00:01,15.73203221,0.0001279,53.2175,180.5268,87.3984,176.5468,2.0484e-05,2.256e-05,0.0,0 STARLINK-4552,1 53420U 22097AJ  22235.83334491  .00002256  00000-0  20484-4 0  9990,2 53420  53.2175 180.5268 0001279  87.3984 176.5468 15.73203221  2574,6727.886,91.533,350.611,348.89,0.0
53420.0,STARLINK-4552,PAYLOAD,2022-08-23 22:00:01,15.73204952,0.0001301,53.2177,180.1149,85.8465,290.3971,-5.4801e-06,-1.389e-05,0.0,0 STARLINK-4552,1 53420U 22097AJ  22235.91668981 -.00001389  00000-0 -54801-5 0  9992,2 53420  53.2177 180.1149 0001301  85.8465 290.3971 15.73204952  1309,6727.880999999999,91.533,350.621,348.871,0.0
53420.0,STARLINK-4552,PAYLOAD,2022-08-24 06:00:00,15.7318702,8.87e-05,53.2206,178.472,72.2143,32.9562,0.00034499,0.00048047,0.0,0 STARLINK-4552,1 53420U 22097AJ  22236.25001157  .00048047  00000-0  34499-3 0  9995,2 53420  53.2206 178.4720 0000887  72.2143  32.9562 15.73187020  2648,6727.932,91.534,350.394,349.2,0.0
53420.0,STARLINK-4552,PAYLOAD,2022-08-24 14:00:01,15.73096028,0.0001026,53.2186,176.8177,73.0363,121.1018,0.00076866,0.0010817,0.0,0 STARLINK-4552,1 53420U 22097AJ  22236.58334491  .00108170  00000-0  76866-3 0  9999,2 53420  53.2186 176.8177 0001026  73.0363 121.1018 15.73096028  1308,6728.191999999999,91.539,350.747,349.366,0.0
53420.0,STARLINK-4552,PAYLOAD,2022-08-24 22:00:00,15.7325204,9.89e-05,53.2201,175.1717,91.7517,191.3181,-0.00051099,-0.0007188,0.0,0 STARLINK-4552,1 53420U 22097AJ  22236.91667824 -.00071880  00000-0 -51099-3 0  9995,2 53420  53.2201 175.1717 0000989  91.7517 191.3181 15.73252040  2740,6727.746999999999,91.53,350.277,348.946,0.0
53420.0,STARLINK-4552,PAYLOAD,2022-08-25 14:00:01,15.7322202,0.0001125999999999,53.2194,171.873,87.8677,13.0975,-0.00046472,-0.00065395,0.0,0 STARLINK-4552,1 53420U 22097AJ  22237.58334491 -.00065395  00000-0 -46472-3 0  9993,2 53420  53.2194 171.8730 0001126  87.8677  13.0975 15.73222020  1303,6727.831999999999,91.532,350.455,348.94,0.0
53420.0,STARLINK-4552,PAYLOAD,2022-08-25 22:00:00,15.73194189,0.0001361,53.2197,170.2237,89.9517,99.9352,5.0702e-05,6.499e-05,0.0,0 STARLINK-4552,1 53420U 22097AJ  22237.91667824  .00006499  00000-0  50702-4 0  9999,2 53420  53.2197 170.2237 0001361  89.9517  99.9352 15.73194189  1304,6727.9119999999975,91.534,350.69199999999995,348.861,0.0
53420.0,STARLINK-4552,PAYLOAD,2022-08-26 06:00:00,15.731779500000002,0.000131,53.2195,168.5762,78.2818,200.5311,0.00044266,0.00061904,0.0,0 STARLINK-4552,1 53420U 22097AJ  22238.25001157  .00061904  00000-0  44266-3 0  9997,2 53420  53.2195 168.5762 0001310  78.2818 200.5311 15.73177950  2958,6727.958000000001,91.534,350.704,348.94199999999995,0.0
53420.0,STARLINK-4552,PAYLOAD,2022-08-26 14:00:01,15.73210139,0.0001107,53.2194,166.9248,93.1534,274.6662,-0.00032498,-0.00045998,0.0,0 STARLINK-4552,1 53420U 22097AJ  22238.58335648 -.00045998  00000-0 -32498-3 0  9999,2 53420  53.2194 166.9248 0001107  93.1534 274.6662 15.73210139  3008,6727.866,91.533,350.476,348.986,0.0
53420.0,STARLINK-4552,PAYLOAD,2022-08-26 22:00:00,15.73197234,0.0001046,53.2195,165.2761,93.0236,3.6419,2.312800000000001e-05,2.627e-05,0.0,0 STARLINK-4552,1 53420U 22097AJ  22238.91667824  .00002627  00000-0  23128-4 0  9991,2 53420  53.2195 165.2761 0001046  93.0236   3.6419 15.73197234  1302,6727.903,91.533,350.472,349.064,0.0
